OBJECT_NAME,OBJECT_ID,EPOCH,MEAN_MOTION,ECCENTRICITY,INCLINATION,RA_OF_ASC_NODE,ARG_OF_PERICENTER,MEAN_ANOMALY,EPHEMERIS_TYPE,CLASSIFICATION_TYPE,NORAD_CAT_ID,ELEMENT_SET_NO,REV_AT_EPOCH,BSTAR,MEAN_MOTION_DOT,MEAN_MOTION_DDOT
STARLINK-37886,2026-157A,2026-07-20T20:00:01.999008,15.80921478,.0001013,53.1591,267.5753,77.5647,86.7586,0,U,69943,999,306,-.54901E-3,-.107953E-2,0
STARLINK-37937,2026-157B,2026-07-20T20:00:01.999008,15.80929424,.0001044,53.1592,267.5568,88.0466,85.3563,0,U,69944,999,306,-.6229E-3,-.122232E-2,0
STARLINK-37903,2026-157C,2026-07-20T20:00:01.999008,15.80932938,.0001279,53.1592,267.5474,75.6870,102.2398,0,U,69945,999,306,-.77772E-3,-.151951E-2,0
STARLINK-37905,2026-157D,2026-07-20T20:00:01.999008,15.80933805,.0001003,53.1594,267.5071,80.9423,116.2666,0,U,69946,999,306,-.74629E-3,-.14594E-2,0
STARLINK-37904,2026-157E,2026-07-20T20:00:01.999008,15.80931381,.0001055,53.1593,267.4992,82.1803,118.9342,0,U,69947,999,306,-.73685E-3,-.144117E-2,0
STARLINK-37891,2026-157F,2026-07-20T20:00:01.999008,15.80929274,.0000974,53.1592,267.4901,87.6762,117.7299,0,U,69948,999,306,-.72857E-3,-.142517E-2,0
STARLINK-37923,2026-157G,2026-07-20T20:00:01.999008,15.80925504,.0001052,53.1593,267.4545,84.1332,138.3783,0,U,69949,999,306,-.69768E-3,-.136575E-2,0
STARLINK-37895,2026-157H,2026-07-20T20:00:01.999008,15.80924722,.0001043,53.1593,267.4387,74.7363,155.2617,0,U,69950,999,306,-.76513E-3,-.149483E-2,0
STARLINK-37841,2026-157J,2026-07-20T20:00:01.999008,15.80923672,.0001104,53.1594,267.4150,76.5145,164.8756,0,U,69951,999,306,-.5963E-3,-.117082E-2,0
STARLINK-37899,2026-157K,2026-07-20T20:00:01.999008,15.80913898,.0001142,53.1593,267.3919,82.1411,170.4069,0,U,69952,999,306,-.56288E-3,-.110592E-2,0
STARLINK-37900,2026-157L,2026-07-20T20:00:01.999008,15.80930257,.0001151,53.1592,267.3843,80.8486,175.5251,0,U,69953,999,306,-.64162E-3,-.12584E-2,0
STARLINK-37882,2026-157M,2026-07-20T20:00:01.999008,15.80918463,.0001106,53.1592,267.3615,78.0258,189.1626,0,U,69954,999,306,-.50168E-3,-.98797E-3,0
STARLINK-37928,2026-157N,2026-07-20T20:00:01.999008,15.80921699,.0000983,53.1592,267.3603,89.8926,177.9791,0,U,69955,999,306,-.57177E-3,-.112342E-2,0
STARLINK-37824,2026-157P,2026-07-20T20:00:01.999008,15.80922184,.0000837,53.1593,267.3573,82.2472,187.0557,0,U,69956,999,306,-.49046E-3,-.9664E-3,0
STARLINK-37919,2026-157Q,2026-07-20T20:00:01.999008,15.80923993,.000101,53.1592,267.3552,86.9160,183.3560,0,U,69957,999,306,-.63624E-3,-.124768E-2,0
STARLINK-37964,2026-157R,2026-07-20T20:00:01.999008,15.80926543,.0000565,53.1592,267.3418,65.8068,210.9450,0,U,69958,999,306,-.59266E-3,-.116387E-2,0
STARLINK-37907,2026-157S,2026-07-20T20:00:01.999008,15.80972750,.0001071,53.1591,267.3210,76.6574,210.1872,0,U,69959,999,306,-.11221E-2,-.217672E-2,0
STARLINK-37901,2026-157T,2026-07-20T20:00:01.999008,15.80916182,.0001016,53.1590,267.3074,81.1188,212.3339,0,U,69960,999,306,-.45837E-3,-.90404E-3,0
STARLINK-37910,2026-157U,2026-07-20T20:00:01.999008,15.80928540,.0001084,53.1589,267.2882,74.8712,227.6373,0,U,69961,999,306,-.51561E-3,-.101535E-2,0
STARLINK-37925,2026-157V,2026-07-20T20:00:01.999008,15.80960095,.0001031,53.1588,267.2843,75.2181,229.2982,0,U,69962,999,306,-.10553E-2,-.204936E-2,0
STARLINK-37931,2026-157W,2026-07-20T20:00:01.999008,15.80923079,.0000834,53.1589,267.2776,83.9495,223.8046,0,U,69963,999,306,-.4604E-3,-.90823E-3,0
STARLINK-37914,2026-157X,2026-07-20T20:00:01.999008,15.80917200,.000127,53.1588,267.2425,88.6956,235.6197,0,U,69964,999,306,-.52172E-3,-.102667E-2,0
STARLINK-37840,2026-157Y,2026-07-20T20:00:01.999008,15.80914423,.0000936,53.1587,267.2081,82.9762,258.1967,0,U,69965,999,306,-.49836E-3,-.98134E-3,0
STARLINK-37894,2026-157Z,2026-07-20T20:00:01.999008,15.80925208,.000131,53.1586,267.2222,70.0029,264.3635,0,U,69966,999,306,-.50836E-3,-.100122E-2,0
STARLINK-37875,2026-157AA,2026-07-20T20:00:01.999008,15.80894771,.0001055,53.1624,267.2006,69.5301,274.9924,0,U,69967,999,306,-.28599E-3,-.5683E-3,0
STARLINK-36218,2026-157AB,2026-07-20T20:00:01.999008,15.80923653,.0001011,53.1589,267.1732,85.4278,272.1480,0,U,69968,999,271,-.66348E-3,-.129998E-2,0
STARLINK-37921,2026-157AC,2026-07-20T20:00:01.999008,15.80909185,.0001044,53.1626,267.1359,65.9861,309.5476,0,U,69969,999,306,-.45792E-3,-.90287E-3,0
STARLINK-37896,2026-157AD,2026-07-20T20:00:01.999008,15.80926729,.0001104,53.1590,267.1338,87.7984,288.8247,0,U,69970,999,306,-.62379E-3,-.122389E-2,0
STARLINK-37922,2026-157AE,2026-07-20T20:00:01.999008,15.80925209,.0001137,53.1591,267.1306,83.6682,294.2804,0,U,69971,999,306,-.51414E-3,-.101236E-2,0
CHUANG XIN 26 (CX-26),2026-158A,2026-07-20T21:03:09.171072,14.25124225,.0004955,49.9830,256.4389,318.6414,41.4123,0,U,69972,999,151,.21393E-5,-.155E-5,0
