STARLINK-37886          
1 69943U 26157A   26201.83335647 -.00107953  00000+0 -54901-3 0  9990
2 69943  53.1591 267.5753 0001013  77.5647  86.7586 15.80921478  3067
STARLINK-37937          
1 69944U 26157B   26201.83335647 -.00122232  00000+0 -62290-3 0  9998
2 69944  53.1592 267.5568 0001044  88.0466  85.3563 15.80929424  3062
STARLINK-37903          
1 69945U 26157C   26201.83335647 -.00151951  00000+0 -77772-3 0  9990
2 69945  53.1592 267.5474 0001279  75.6870 102.2398 15.80932938  3069
STARLINK-37905          
1 69946U 26157D   26201.83335647 -.00145940  00000+0 -74629-3 0  9990
2 69946  53.1594 267.5071 0001003  80.9423 116.2666 15.80933805  3060
STARLINK-37904          
1 69947U 26157E   26201.83335647 -.00144117  00000+0 -73685-3 0  9997
2 69947  53.1593 267.4992 0001055  82.1803 118.9342 15.80931381  3061
STARLINK-37891          
1 69948U 26157F   26201.83335647 -.00142517  00000+0 -72857-3 0  9990
2 69948  53.1592 267.4901 0000974  87.6762 117.7299 15.80929274  3060
STARLINK-37923          
1 69949U 26157G   26201.83335647 -.00136575  00000+0 -69768-3 0  9995
2 69949  53.1593 267.4545 0001052  84.1332 138.3783 15.80925504  3068
STARLINK-37895          
1 69950U 26157H   26201.83335647 -.00149483  00000+0 -76513-3 0  9995
2 69950  53.1593 267.4387 0001043  74.7363 155.2617 15.80924722  3068
STARLINK-37841          
1 69951U 26157J   26201.83335647 -.00117082  00000+0 -59630-3 0  9997
2 69951  53.1594 267.4150 0001104  76.5145 164.8756 15.80923672  3067
STARLINK-37899          
1 69952U 26157K   26201.83335647 -.00110592  00000+0 -56288-3 0  9993
2 69952  53.1593 267.3919 0001142  82.1411 170.4069 15.80913898  3069
STARLINK-37900          
1 69953U 26157L   26201.83335647 -.00125840  00000+0 -64162-3 0  9996
2 69953  53.1592 267.3843 0001151  80.8486 175.5251 15.80930257  3069
STARLINK-37882          
1 69954U 26157M   26201.83335647 -.00098797  00000+0 -50168-3 0  9998
2 69954  53.1592 267.3615 0001106  78.0258 189.1626 15.80918463  3065
STARLINK-37928          
1 69955U 26157N   26201.83335647 -.00112342  00000+0 -57177-3 0  9999
2 69955  53.1592 267.3603 0000983  89.8926 177.9791 15.80921699  3060
STARLINK-37824          
1 69956U 26157P   26201.83335647 -.00096640  00000+0 -49046-3 0  9998
2 69956  53.1593 267.3573 0000837  82.2472 187.0557 15.80922184  3061
STARLINK-37919          
1 69957U 26157Q   26201.83335647 -.00124768  00000+0 -63624-3 0  9990
2 69957  53.1592 267.3552 0001010  86.9160 183.3560 15.80923993  3069
STARLINK-37964          
1 69958U 26157R   26201.83335647 -.00116387  00000+0 -59266-3 0  9996
2 69958  53.1592 267.3418 0000565  65.8068 210.9450 15.80926543  3067
STARLINK-37907          
1 69959U 26157S   26201.83335647 -.00217672  00000+0 -11221-2 0  9994
2 69959  53.1591 267.3210 0001071  76.6574 210.1872 15.80972750  3063
STARLINK-37901          
1 69960U 26157T   26201.83335647 -.00090404  00000+0 -45837-3 0  9999
2 69960  53.1590 267.3074 0001016  81.1188 212.3339 15.80916182  3062
STARLINK-37910          
1 69961U 26157U   26201.83335647 -.00101535  00000+0 -51561-3 0  9999
2 69961  53.1589 267.2882 0001084  74.8712 227.6373 15.80928540  3062
STARLINK-37925          
1 69962U 26157V   26201.83335647 -.00204936  00000+0 -10553-2 0  9994
2 69962  53.1588 267.2843 0001031  75.2181 229.2982 15.80960095  3061
STARLINK-37931          
1 69963U 26157W   26201.83335647 -.00090823  00000+0 -46040-3 0  9994
2 69963  53.1589 267.2776 0000834  83.9495 223.8046 15.80923079  3064
STARLINK-37914          
1 69964U 26157X   26201.83335647 -.00102667  00000+0 -52172-3 0  9998
2 69964  53.1588 267.2425 0001270  88.6956 235.6197 15.80917200  3061
STARLINK-37840          
1 69965U 26157Y   26201.83335647 -.00098134  00000+0 -49836-3 0  9995
2 69965  53.1587 267.2081 0000936  82.9762 258.1967 15.80914423  3068
STARLINK-37894          
1 69966U 26157Z   26201.83335647 -.00100122  00000+0 -50836-3 0  9999
2 69966  53.1586 267.2222 0001310  70.0029 264.3635 15.80925208  3060
STARLINK-37875          
1 69967U 26157AA  26201.83335647 -.00056830  00000+0 -28599-3 0  9997
2 69967  53.1624 267.2006 0001055  69.5301 274.9924 15.80894771  3064
STARLINK-36218          
1 69968U 26157AB  26201.83335647 -.00129998  00000+0 -66348-3 0  9998
2 69968  53.1589 267.1732 0001011  85.4278 272.1480 15.80923653  2712
STARLINK-37921          
1 69969U 26157AC  26201.83335647 -.00090287  00000+0 -45792-3 0  9997
2 69969  53.1626 267.1359 0001044  65.9861 309.5476 15.80909185  3060
STARLINK-37896          
1 69970U 26157AD  26201.83335647 -.00122389  00000+0 -62379-3 0  9998
2 69970  53.1590 267.1338 0001104  87.7984 288.8247 15.80926729  3062
STARLINK-37922          
1 69971U 26157AE  26201.83335647 -.00101236  00000+0 -51414-3 0  9995
2 69971  53.1591 267.1306 0001137  83.6682 294.2804 15.80925209  3067
CHUANG XIN 26 (CX-26)   
1 69972U 26158A   26201.87718948 -.00000155  00000+0  21393-5 0  9992
2 69972  49.9830 256.4389 0004955 318.6414  41.4123 14.25124225  1515
